DELTA 2 R/B(1)          
1 20453U 90008B   26038.24001821  .00085042  00000+0  11272-2 0  9991
2 20453  35.6060  14.0358 0095142 334.6671  24.9417 15.51758166921394
COSMOS 2058             
1 20465U 90010A   26038.52011902  .00005198  00000+0  30879-3 0  9998
2 20465  82.4637  77.1489 0012054  81.2516 279.0078 15.11043462937683
SL-14 R/B               
1 20466U 90010B   26038.80782271  .00000594  00000+0  68962-4 0  9994
2 20466  82.5029 295.4582 0020882  41.6974 318.5828 14.83542790924050
SL-14 R/B               
1 20511U 90018B   26038.66176949  .00000518  00000+0  62050-4 0  9994
2 20511  82.5182 251.1629 0016132 185.9227 174.1799 14.82113636918135
HST                     
1 20580U 90037B   26038.79235692  .00008971  00000+0  30147-3 0  9998
2 20580  28.4662 243.8802 0001810 133.8619 226.2126 15.29003133768732
SL-16 R/B               
1 20625U 90046B   26038.86525376  .00000162  00000+0  10801-3 0  9996
2 20625  71.0001   0.5472 0014647 341.1033  18.9544 14.15005794844172
COSMOS 2084             
1 20663U 90055A   26038.43488658  .00003455  00000+0  25211-3 0  9991
2 20663  62.7898  78.7513 0021878 183.7599 176.3341 15.05455558931762
SL-6 R/B(2)             
1 20666U 90055D   26038.64268344  .00003492  00000+0  26867-3 0  9994
2 20666  62.7851 356.0166 0020274 338.3884  21.6357 15.03435258933678
SL-8 R/B                
1 20775U 90078B   26038.66226949  .00020034  00000+0  59104-3 0  9998
2 20775  82.9021 278.2928 0367122 114.5970 249.3966 14.88072324804832
SL-8 R/B                
1 21088U 91006B   26038.85319479  .00000035  00000+0  19149-4 0  9995
2 21088  82.9431 192.2282 0023588 117.6768 352.5509 13.77492029759965
OKEAN-3                 
1 21397U 91039A   26038.35458580  .00004543  00000+0  32110-3 0  9996
2 21397  82.5182   6.2222 0016481  76.3261 283.9800 15.04563620860476
COSMOS 2151             
1 21422U 91042A   26038.79884295  .00002741  00000+0  21805-3 0  9990
2 21422  82.4963 112.5095 0013197 154.4568 205.7310 14.99990055858710
