CCSDS_OMM_VERS = 2.0
CREATION_DATE  = 
ORIGINATOR     = 

OBJECT_NAME    = DELTA 2 R/B(1)
OBJECT_ID      = 1990-008B
CENTER_NAME    = EARTH
REF_FRAME      = TEME
TIME_SYSTEM    = UTC
MEAN_ELEMENT_THEORY = SGP/SGP4

EPOCH          = 2026-02-07T05:45:37.573344
MEAN_MOTION    = 15.51758166
ECCENTRICITY   = .0095142
INCLINATION    = 35.6060
RA_OF_ASC_NODE = 14.0358
ARG_OF_PERICENTER = 334.6671
MEAN_ANOMALY   = 24.9417

EPHEMERIS_TYPE = 0
CLASSIFICATION_TYPE = U
NORAD_CAT_ID   = 20453
ELEMENT_SET_NO = 999
REV_AT_EPOCH   = 92139
BSTAR          = .11272E-2
MEAN_MOTION_DOT = .85042E-3
MEAN_MOTION_DDOT = 0

CCSDS_OMM_VERS = 2.0
CREATION_DATE  = 
ORIGINATOR     = 

OBJECT_NAME    = COSMOS 2058
OBJECT_ID      = 1990-010A
CENTER_NAME    = EARTH
REF_FRAME      = TEME
TIME_SYSTEM    = UTC
MEAN_ELEMENT_THEORY = SGP/SGP4

EPOCH          = 2026-02-07T12:28:58.283328
MEAN_MOTION    = 15.11043462
ECCENTRICITY   = .00120541
INCLINATION    = 82.4637
RA_OF_ASC_NODE = 77.1489
ARG_OF_PERICENTER = 81.2516
MEAN_ANOMALY   = 279.0078

EPHEMERIS_TYPE = 0
CLASSIFICATION_TYPE = U
NORAD_CAT_ID   = 20465
ELEMENT_SET_NO = 999
REV_AT_EPOCH   = 93768
BSTAR          = .30878972E-3
MEAN_MOTION_DOT = .5198E-4
MEAN_MOTION_DDOT = 0

CCSDS_OMM_VERS = 2.0
CREATION_DATE  = 
ORIGINATOR     = 

OBJECT_NAME    = SL-14 R/B
OBJECT_ID      = 1990-010B
CENTER_NAME    = EARTH
REF_FRAME      = TEME
TIME_SYSTEM    = UTC
MEAN_ELEMENT_THEORY = SGP/SGP4

EPOCH          = 2026-02-07T19:23:15.882144
MEAN_MOTION    = 14.83542790
ECCENTRICITY   = .0020882
INCLINATION    = 82.5029
RA_OF_ASC_NODE = 295.4582
ARG_OF_PERICENTER = 41.6974
MEAN_ANOMALY   = 318.5828

EPHEMERIS_TYPE = 0
CLASSIFICATION_TYPE = U
NORAD_CAT_ID   = 20466
ELEMENT_SET_NO = 999
REV_AT_EPOCH   = 92405
BSTAR          = .68962E-4
MEAN_MOTION_DOT = .594E-5
MEAN_MOTION_DDOT = 0

CCSDS_OMM_VERS = 2.0
CREATION_DATE  = 
ORIGINATOR     = 

OBJECT_NAME    = SL-14 R/B
OBJECT_ID      = 1990-018B
CENTER_NAME    = EARTH
REF_FRAME      = TEME
TIME_SYSTEM    = UTC
MEAN_ELEMENT_THEORY = SGP/SGP4

EPOCH          = 2026-02-07T15:52:56.883936
MEAN_MOTION    = 14.82113636
ECCENTRICITY   = .0016132
INCLINATION    = 82.5182
RA_OF_ASC_NODE = 251.1629
ARG_OF_PERICENTER = 185.9227
MEAN_ANOMALY   = 174.1799

EPHEMERIS_TYPE = 0
CLASSIFICATION_TYPE = U
NORAD_CAT_ID   = 20511
ELEMENT_SET_NO = 999
REV_AT_EPOCH   = 91813
BSTAR          = .6205E-4
MEAN_MOTION_DOT = .518E-5
MEAN_MOTION_DDOT = 0

CCSDS_OMM_VERS = 2.0
CREATION_DATE  = 
ORIGINATOR     = 

OBJECT_NAME    = HST
OBJECT_ID      = 1990-037B
CENTER_NAME    = EARTH
REF_FRAME      = TEME
TIME_SYSTEM    = UTC
MEAN_ELEMENT_THEORY = SGP/SGP4

EPOCH          = 2026-02-07T19:00:59.637888
MEAN_MOTION    = 15.29003133
ECCENTRICITY   = .000181
INCLINATION    = 28.4662
RA_OF_ASC_NODE = 243.8802
ARG_OF_PERICENTER = 133.8619
MEAN_ANOMALY   = 226.2126

EPHEMERIS_TYPE = 0
CLASSIFICATION_TYPE = U
NORAD_CAT_ID   = 20580
ELEMENT_SET_NO = 999
REV_AT_EPOCH   = 76873
BSTAR          = .30147E-3
MEAN_MOTION_DOT = .8971E-4
MEAN_MOTION_DDOT = 0

CCSDS_OMM_VERS = 2.0
CREATION_DATE  = 
ORIGINATOR     = 

OBJECT_NAME    = SL-16 R/B
OBJECT_ID      = 1990-046B
CENTER_NAME    = EARTH
REF_FRAME      = TEME
TIME_SYSTEM    = UTC
MEAN_ELEMENT_THEORY = SGP/SGP4

EPOCH          = 2026-02-07T20:45:57.924864
MEAN_MOTION    = 14.15005794
ECCENTRICITY   = .0014647
INCLINATION    = 71.0001
RA_OF_ASC_NODE = 0.5472
ARG_OF_PERICENTER = 341.1033
MEAN_ANOMALY   = 18.9544

EPHEMERIS_TYPE = 0
CLASSIFICATION_TYPE = U
NORAD_CAT_ID   = 20625
ELEMENT_SET_NO = 999
REV_AT_EPOCH   = 84417
BSTAR          = .10801E-3
MEAN_MOTION_DOT = .162E-5
MEAN_MOTION_DDOT = 0

CCSDS_OMM_VERS = 2.0
CREATION_DATE  = 
ORIGINATOR     = 

OBJECT_NAME    = COSMOS 2084
OBJECT_ID      = 1990-055A
CENTER_NAME    = EARTH
REF_FRAME      = TEME
TIME_SYSTEM    = UTC
MEAN_ELEMENT_THEORY = SGP/SGP4

EPOCH          = 2026-02-07T10:26:14.200512
MEAN_MOTION    = 15.05455558
ECCENTRICITY   = .00218781
INCLINATION    = 62.7898
RA_OF_ASC_NODE = 78.7513
ARG_OF_PERICENTER = 183.7599
MEAN_ANOMALY   = 176.3341

EPHEMERIS_TYPE = 0
CLASSIFICATION_TYPE = U
NORAD_CAT_ID   = 20663
ELEMENT_SET_NO = 999
REV_AT_EPOCH   = 93176
BSTAR          = .25210679E-3
MEAN_MOTION_DOT = .3455E-4
MEAN_MOTION_DDOT = 0

CCSDS_OMM_VERS = 2.0
CREATION_DATE  = 
ORIGINATOR     = 

OBJECT_NAME    = SL-6 R/B(2)
OBJECT_ID      = 1990-055D
CENTER_NAME    = EARTH
REF_FRAME      = TEME
TIME_SYSTEM    = UTC
MEAN_ELEMENT_THEORY = SGP/SGP4

EPOCH          = 2026-02-07T15:25:27.849216
MEAN_MOTION    = 15.03435258
ECCENTRICITY   = .0020274
INCLINATION    = 62.7851
RA_OF_ASC_NODE = 356.0166
ARG_OF_PERICENTER = 338.3884
MEAN_ANOMALY   = 21.6357

EPHEMERIS_TYPE = 0
CLASSIFICATION_TYPE = U
NORAD_CAT_ID   = 20666
ELEMENT_SET_NO = 999
REV_AT_EPOCH   = 93367
BSTAR          = .26867E-3
MEAN_MOTION_DOT = .3492E-4
MEAN_MOTION_DDOT = 0

CCSDS_OMM_VERS = 2.0
CREATION_DATE  = 
ORIGINATOR     = 

OBJECT_NAME    = SL-8 R/B
OBJECT_ID      = 1990-078B
CENTER_NAME    = EARTH
REF_FRAME      = TEME
TIME_SYSTEM    = UTC
MEAN_ELEMENT_THEORY = SGP/SGP4

EPOCH          = 2026-02-07T15:53:40.083936
MEAN_MOTION    = 14.88072324
ECCENTRICITY   = .0367122
INCLINATION    = 82.9021
RA_OF_ASC_NODE = 278.2928
ARG_OF_PERICENTER = 114.5970
MEAN_ANOMALY   = 249.3966

EPHEMERIS_TYPE = 0
CLASSIFICATION_TYPE = U
NORAD_CAT_ID   = 20775
ELEMENT_SET_NO = 999
REV_AT_EPOCH   = 80483
BSTAR          = .59104E-3
MEAN_MOTION_DOT = .20034E-3
MEAN_MOTION_DDOT = 0

CCSDS_OMM_VERS = 2.0
CREATION_DATE  = 
ORIGINATOR     = 

OBJECT_NAME    = SL-8 R/B
OBJECT_ID      = 1991-006B
CENTER_NAME    = EARTH
REF_FRAME      = TEME
TIME_SYSTEM    = UTC
MEAN_ELEMENT_THEORY = SGP/SGP4

EPOCH          = 2026-02-07T20:28:36.029856
MEAN_MOTION    = 13.77492029
ECCENTRICITY   = .0023588
INCLINATION    = 82.9431
RA_OF_ASC_NODE = 192.2282
ARG_OF_PERICENTER = 117.6768
MEAN_ANOMALY   = 352.5509

EPHEMERIS_TYPE = 0
CLASSIFICATION_TYPE = U
NORAD_CAT_ID   = 21088
ELEMENT_SET_NO = 999
REV_AT_EPOCH   = 75996
BSTAR          = .19149E-4
MEAN_MOTION_DOT = .35E-6
MEAN_MOTION_DDOT = 0

CCSDS_OMM_VERS = 2.0
CREATION_DATE  = 
ORIGINATOR     = 

OBJECT_NAME    = OKEAN-3
OBJECT_ID      = 1991-039A
CENTER_NAME    = EARTH
REF_FRAME      = TEME
TIME_SYSTEM    = UTC
MEAN_ELEMENT_THEORY = SGP/SGP4

EPOCH          = 2026-02-07T08:30:36.213120
MEAN_MOTION    = 15.04563620
ECCENTRICITY   = .00164815
INCLINATION    = 82.5182
RA_OF_ASC_NODE = 6.2222
ARG_OF_PERICENTER = 76.3261
MEAN_ANOMALY   = 283.9800

EPHEMERIS_TYPE = 0
CLASSIFICATION_TYPE = U
NORAD_CAT_ID   = 21397
ELEMENT_SET_NO = 999
REV_AT_EPOCH   = 86047
BSTAR          = .32110043E-3
MEAN_MOTION_DOT = .4543E-4
MEAN_MOTION_DDOT = 0

CCSDS_OMM_VERS = 2.0
CREATION_DATE  = 
ORIGINATOR     = 

OBJECT_NAME    = COSMOS 2151
OBJECT_ID      = 1991-042A
CENTER_NAME    = EARTH
REF_FRAME      = TEME
TIME_SYSTEM    = UTC
MEAN_ELEMENT_THEORY = SGP/SGP4

EPOCH          = 2026-02-07T19:10:20.030880
MEAN_MOTION    = 14.99990055
ECCENTRICITY   = .0013197
INCLINATION    = 82.4963
RA_OF_ASC_NODE = 112.5095
ARG_OF_PERICENTER = 154.4568
MEAN_ANOMALY   = 205.7310

EPHEMERIS_TYPE = 0
CLASSIFICATION_TYPE = U
NORAD_CAT_ID   = 21422
ELEMENT_SET_NO = 999
REV_AT_EPOCH   = 85871
BSTAR          = .21805E-3
MEAN_MOTION_DOT = .2741E-4
MEAN_MOTION_DDOT = 0

